ISS (NAUKA)             
1 49044U 21066A   26195.15353936  .00004039  00000+0  81426-4 0  9994
2 49044  51.6308 166.6375 0006704 293.6864  66.3421 15.49005057575730
STARLINK-3100           
1 49144U 21082Q   26194.81100713  .00002454  00000+0  21326-3 0  9999
2 49144  70.0012 336.4484 0002916 267.6063  92.4762 14.98346131264871
CUTE                    
1 49263U 21088D   26194.82176346  .01771439  24136-5  11689-2 0  9992
2 49263  97.4004 296.9840 0009233 294.1930  65.8392 16.17028853266810
2021-091B               
1 49316U 21091B   26195.20721493  .00000774  00000+0  40592-4 0  9998
2 49316  97.4471  22.3728 0012071 312.1836  47.8372 15.18675484263085
SDGSAT 1                
1 49387U 21100A   26195.17016206  .00001418  00000+0  70372-4 0  9997
2 49387  97.2625 241.0875 0009739 166.4390 193.7109 15.19235453260015
TEIKYOSAT-4 (OORURI)    
1 49396U 21102B   26195.03308767  .00001136  00000+0  74373-4 0  9992
2 49396  97.3665 223.4729 0011635 192.5847 167.5093 15.09596053256771
Z-SAT                   
1 49399U 21102E   26195.15216067  .00003502  00000+0  17254-3 0  9992
2 49399  97.3316 229.6575 0017518 147.9813 212.2490 15.18461316257534
HIBARI                  
1 49400U 21102F   26195.11229987  .00006868  00000+0  22237-3 0  9991
2 49400  97.3225 240.7151 0013251 104.3970 255.8743 15.32265015258316
KOSEN-1                 
1 49402U 21102H   26195.07414497  .00004724  00000+0  17935-3 0  9998
2 49402  97.3171 236.7126 0015380 111.1219 249.1666 15.27204286258128
GLOBAL-14               
1 49469U 21106A   26195.19186397  .00016106  00000+0  26575-3 0  9990
2 49469  42.0032 130.4382 0017647 217.3776 142.5841 15.51793666262323
GAOFEN-3 02             
1 49495U 21109A   26195.17565021  .00000028  00000+0  21846-4 0  9998
2 49495  98.4090 202.8892 0001334 274.2425  85.8612 14.42220134244206
GLOBAL-12               
1 49772U 21115BA  26194.75614418  .00020043  00000+0  29698-3 0  9992
2 49772  53.1950 276.6286 0002799  70.6206 289.5109 15.55275740260035
GLOBAL-13               
1 49773U 21115BB  26194.55057591  .00012448  00000+0  25013-3 0  9991
2 49773  53.1977 289.1685 0000626 154.4418 205.6622 15.47067083259846
GLOBAL-17               
1 49949U 21120A   26195.16370328  .00016986  00000+0  26224-3 0  9992
2 49949  41.9936 248.3737 0013364  82.7744 277.4619 15.53683718259090
GLOBAL-16               
1 49950U 21120B   26195.21466175  .00015390  00000+0  25820-3 0  9995
2 49950  41.9935 252.3229 0011569  72.4162 287.7945 15.51455752259041
XW-3 (CAS-9)            
1 50466U 21131B   26195.19727521  .00000246  00000+0  89471-4 0  9990
2 50466  98.4992 287.4412 0004655  33.2148 326.9332 14.41381168239002
ION SCV-004             
1 50993U 22002K   26195.10461120  .00003088  00000+0  10658-3 0  9991
2 50993  97.2820 252.2596 0005686 252.0463 108.0159 15.30702329249410
ETV-A1                  
1 51060U 22002CE  26195.15746524  .00007133  00000+0  17376-3 0  9995
2 51060  97.2869 261.3927 0003839 230.2248 129.8661 15.41221635249995
BRO-5                   
1 51061U 22002CF  26195.13998351  .00021031  00000+0  39185-3 0  9996
2 51061  97.2992 269.0734 0005275 207.4108 152.6865 15.48841993250423
LUDI TANCE 1-01A (L-SA*)
1 51284U 22007A   26194.13072729  .00000295  00000+0  37732-4 0  9995
2 51284  97.8111 201.1823 0001618  91.8544 268.2859 14.88418156242333
LUDI TANCE 1-01B (L-SA*)
1 51822U 22018A   26195.17274475  .00000322  00000+0  40578-4 0  9995
2 51822  97.8109 202.2077 0001613  91.3124 268.8277 14.88413148237728
2022-023F               
1 51951U 22023F   26195.22087000  .00005951  00000+0  24118-3 0  9990
2 51951  63.4441 181.5810 0132988 341.6152  18.0177 15.17963770241818
MERIDIAN 10             
1 52145U 22030A   26194.88726382  .00000135  00000+0  00000+0 0  9997
2 52145  62.6801 137.9093 6791354 272.8426  17.6045  2.00609462 31567
OMNI-L1                 
1 52157U 22033A   26195.17140716  .00000943  00000+0  12295-3 0  9997
2 52157  97.8392 273.8252 0005232 180.6469 179.4738 14.82842720231457
ENMAP                   
1 52159U 22033C   26195.16562255 -.00000075  00000+0 -36805-5 0  9997
2 52159  97.9797 277.0312 0001312  80.2061 279.9296 14.74939607230636
ARCSAT-1                
1 52161U 22033E   26195.17142535  .00007662  00000+0  11885-3 0  9992
2 52161  97.2762 287.8572 0006287  99.8737 260.3227 15.54266864239895
GLOBAL-18               
1 52196U 22034B   26195.19918976  .00013850  00000+0  27601-3 0  9992
2 52196  52.9810 127.4495 0004419  21.1533 338.9655 15.47194583241143
