OBJECT_NAME,OBJECT_ID,EPOCH,MEAN_MOTION,ECCENTRICITY,INCLINATION,RA_OF_ASC_NODE,ARG_OF_PERICENTER,MEAN_ANOMALY,EPHEMERIS_TYPE,CLASSIFICATION_TYPE,NORAD_CAT_ID,ELEMENT_SET_NO,REV_AT_EPOCH,BSTAR,MEAN_MOTION_DOT,MEAN_MOTION_DDOT
ISS (NAUKA),2021-066A,2026-07-14T03:41:05.800704,15.49005057,.0006704,51.6308,166.6375,293.6864,66.3421,0,U,49044,999,57573,.81426E-4,.4039E-4,0
STARLINK-3100,2021-082Q,2026-07-13T19:27:51.016032,14.98346131,.0002916,70.0012,336.4484,267.6063,92.4762,0,U,49144,999,26487,.21326E-3,.2454E-4,0
CUTE,2021-088D,2026-07-13T19:43:20.362944,16.17028853,.0009233,97.4004,296.9840,294.1930,65.8392,0,U,49263,999,26681,.11689E-2,.1771439E-1,.24136E-5
2021-091B,2021-091B,2026-07-14T04:58:23.369952,15.18675484,.0012071,97.4471,22.3728,312.1836,47.8372,0,U,49316,999,26308,.40592E-4,.774E-5,0
SDGSAT 1,2021-100A,2026-07-14T04:05:02.001984,15.19235453,.0009739,97.2625,241.0875,166.4390,193.7109,0,U,49387,999,26001,.70372E-4,.1418E-4,0
TEIKYOSAT-4 (OORURI),2021-102B,2026-07-14T00:47:38.774688,15.09596053,.0011635,97.3665,223.4729,192.5847,167.5093,0,U,49396,999,25677,.74373E-4,.1136E-4,0
Z-SAT,2021-102E,2026-07-14T03:39:06.681888,15.18461316,.0017518,97.3316,229.6575,147.9813,212.2490,0,U,49399,999,25753,.17254E-3,.3502E-4,0
HIBARI,2021-102F,2026-07-14T02:41:42.708768,15.32265015,.0013251,97.3225,240.7151,104.3970,255.8743,0,U,49400,999,25831,.22237E-3,.6868E-4,0
KOSEN-1,2021-102H,2026-07-14T01:46:46.125408,15.27204286,.001538,97.3171,236.7126,111.1219,249.1666,0,U,49402,999,25812,.17935E-3,.4724E-4,0
GLOBAL-14,2021-106A,2026-07-14T04:36:17.047008,15.51793666,.0017647,42.0032,130.4382,217.3776,142.5841,0,U,49469,999,26232,.26575E-3,.16106E-3,0
GAOFEN-3 02,2021-109A,2026-07-14T04:12:56.178144,14.42220134,.0001334,98.4090,202.8892,274.2425,85.8612,0,U,49495,999,24420,.21846E-4,.28E-6,0
GLOBAL-12,2021-115BA,2026-07-13T18:08:50.857152,15.55275740,.0002799,53.1950,276.6286,70.6206,289.5109,0,U,49772,999,26003,.29698E-3,.20043E-3,0
GLOBAL-13,2021-115BB,2026-07-13T13:12:49.758624,15.47067083,.0000626,53.1977,289.1685,154.4418,205.6622,0,U,49773,999,25984,.25013E-3,.12448E-3,0
GLOBAL-17,2021-120A,2026-07-14T03:55:43.963392,15.53683718,.0013364,41.9936,248.3737,82.7744,277.4619,0,U,49949,999,25909,.26224E-3,.16986E-3,0
GLOBAL-16,2021-120B,2026-07-14T05:09:06.775200,15.51455752,.0011569,41.9935,252.3229,72.4162,287.7945,0,U,49950,999,25904,.2582E-3,.1539E-3,0
XW-3 (CAS-9),2021-131B,2026-07-14T04:44:04.578144,14.41381168,.0004655,98.4992,287.4412,33.2148,326.9332,0,U,50466,999,23900,.89471E-4,.246E-5,0
ION SCV-004,2022-002K,2026-07-14T02:30:38.407680,15.30702329,.0005686,97.2820,252.2596,252.0463,108.0159,0,U,50993,999,24941,.10658E-3,.3088E-4,0
ETV-A1,2022-002CE,2026-07-14T03:46:44.996736,15.41221635,.0003839,97.2869,261.3927,230.2248,129.8661,0,U,51060,999,24999,.17376E-3,.7133E-4,0
BRO-5,2022-002CF,2026-07-14T03:21:34.575264,15.48841993,.0005275,97.2992,269.0734,207.4108,152.6865,0,U,51061,999,25042,.39185E-3,.21031E-3,0
LUDI TANCE 1-01A (L-SAR 01A),2022-007A,2026-07-13T03:08:14.837856,14.88418156,.00016187,97.8111,201.1823,91.8544,268.2859,0,U,51284,999,24233,.37731979E-4,.295E-5,0
LUDI TANCE 1-01B (L-SAR 01B),2022-018A,2026-07-14T04:08:45.146400,14.88413148,.0001613,97.8109,202.2077,91.3124,268.8277,0,U,51822,999,23772,.40578E-4,.322E-5,0
2022-023F,2022-023F,2026-07-14T05:18:03.168000,15.17963770,.0132988,63.4441,181.5810,341.6152,18.0177,0,U,51951,999,24181,.24118E-3,.5951E-4,0
MERIDIAN 10,2022-030A,2026-07-13T21:17:39.594048,2.00609462,.6791354,62.6801,137.9093,272.8426,17.6045,0,U,52145,999,3156,0,.135E-5,0
OMNI-L1,2022-033A,2026-07-14T04:06:49.578624,14.82842720,.0005232,97.8392,273.8252,180.6469,179.4738,0,U,52157,999,23145,.12295E-3,.943E-5,0
ENMAP,2022-033C,2026-07-14T03:58:29.788320,14.74939607,.0001312,97.9797,277.0312,80.2061,279.9296,0,U,52159,999,23063,-.36805E-5,-.75E-6,0
ARCSAT-1,2022-033E,2026-07-14T04:06:51.150240,15.54266864,.0006287,97.2762,287.8572,99.8737,260.3227,0,U,52161,999,23989,.11885E-3,.7662E-4,0
GLOBAL-18,2022-034B,2026-07-14T04:46:49.995264,15.47194583,.0004419,52.9810,127.4495,21.1533,338.9655,0,U,52196,999,24114,.27601E-3,.1385E-3,0
